[{"OBJECT_NAME":"LEMUR-2-GREENBERG","OBJECT_ID":"2017-042N","EPOCH":"2026-03-09T11:05:17.256192","MEAN_MOTION":15.27971352,"ECCENTRICITY":0.00091572,"INCLINATION":97.3781,"RA_OF_ASC_NODE":249.8007,"ARG_OF_PERICENTER":4.0119,"MEAN_ANOMALY":356.1192,"EPHEMERIS_TYPE":0,"CLASSIFICATION_TYPE":"U","NORAD_CAT_ID":42837,"ELEMENT_SET_NO":999,"REV_AT_EPOCH":47314,"BSTAR":0.00072539172,"MEAN_MOTION_DOT":0.00019778,"MEAN_MOTION_DDOT":0},{"OBJECT_NAME":"STARLINK-33547","OBJECT_ID":"2024-237S","EPOCH":"2026-03-09T09:35:10.381344","MEAN_MOTION":15.27589555,"ECCENTRICITY":9.825e-5,"INCLINATION":42.9953,"RA_OF_ASC_NODE":207.0838,"ARG_OF_PERICENTER":170.0613,"MEAN_ANOMALY":190.0259,"EPHEMERIS_TYPE":0,"CLASSIFICATION_TYPE":"U","NORAD_CAT_ID":62283,"ELEMENT_SET_NO":999,"REV_AT_EPOCH":7127,"BSTAR":0.0013030697,"MEAN_MOTION_DOT":0.0003578,"MEAN_MOTION_DDOT":0}]
